UNKNOWN                 
1 81779U          26031.46228066 -.00007687  00000+0 -44121+0 0  9998
2 81779  54.5026 135.0102 1528797  98.0700 279.5672  9.34169737484969
UNKNOWN                 
1 81792U          26029.56129026  .00002934  00000+0  10400-2 0  9991
2 81792  65.8312 348.3815 0895770 261.3385  88.5293 13.11198294 86301
UNKNOWN                 
1 81812U          26030.72106187  .00003571  00000+0  25396-1 0  9994
2 81812 103.8147 313.6849 0235228 154.3356 206.9591 12.37746316546624
UNKNOWN                 
1 81816U          26031.40150959  .00001684  00000+0  12720-2 0  9991
2 81816  66.2381 172.2961 0175533 218.4519 140.3941 13.89604206616244
UNKNOWN                 
1 81819U          26031.21109906  .00001011  00000+0  71468-2 0  9997
2 81819 102.1764 134.0718 0030221  23.2133 337.0292 12.47772218554186
UNKNOWN                 
1 81824U          26029.89923411  .00007142  00000+0  24537-2 0  9995
2 81824  65.8407 205.7526 0044332 307.9956  51.7138 14.36035479631509
UNKNOWN                 
1 81833U          26028.67619235  .00000370  00000+0  13180-2 0  9994
2 81833  90.2433   3.9307 0025148 261.8702  97.9564 12.93746880458582
UNKNOWN                 
1 81838U          26026.69871619  .00010833  00000+0  23584-2 0  9999
2 81838  67.7595 148.7226 0041952 323.4616 103.9601 14.57662167639884
UNKNOWN                 
1 81844U          26030.84882726  .00005133  00000+0  18168-2 0  9998
2 81844  82.9078 242.2778 0061954   2.5369 357.6121 14.33375025629929
UNKNOWN                 
1 81845U          26031.28142206  .00003154  00000+0  34692-3 0  9992
2 81845  97.6750 221.5174 0087997 141.4331  36.5732 14.85485975656875
UNKNOWN                 
1 81864U          26031.02949794  .00002998  00000+0  11482-2 0  9998
2 81864  65.6741 311.6500 0766422 351.8445   7.0689 13.32653109557405
UNKNOWN                 
1 81865U          26027.63414443  .00001990  00000+0  16310-2 0  9995
2 81865  82.8067 353.2473 0060440 234.0843 251.4461 13.88175638614910
