CCSDS_OMM_VERS = 2.0
CREATION_DATE  = 
ORIGINATOR     = 

OBJECT_NAME    = UNKNOWN
OBJECT_ID      = 
CENTER_NAME    = EARTH
REF_FRAME      = TEME
TIME_SYSTEM    = UTC
MEAN_ELEMENT_THEORY = SGP/SGP4

EPOCH          = 2026-01-31T11:05:41.049024
MEAN_MOTION    = 9.34169737
ECCENTRICITY   = .1528797
INCLINATION    = 54.5026
RA_OF_ASC_NODE = 135.0102
ARG_OF_PERICENTER = 98.0700
MEAN_ANOMALY   = 279.5672

EPHEMERIS_TYPE = 0
CLASSIFICATION_TYPE = U
NORAD_CAT_ID   = 81779
ELEMENT_SET_NO = 999
REV_AT_EPOCH   = 48496
BSTAR          = -.44121E+0
MEAN_MOTION_DOT = -.7687E-4
MEAN_MOTION_DDOT = 0

CCSDS_OMM_VERS = 2.0
CREATION_DATE  = 
ORIGINATOR     = 

OBJECT_NAME    = UNKNOWN
OBJECT_ID      = 
CENTER_NAME    = EARTH
REF_FRAME      = TEME
TIME_SYSTEM    = UTC
MEAN_ELEMENT_THEORY = SGP/SGP4

EPOCH          = 2026-01-29T13:28:15.478464
MEAN_MOTION    = 13.11198294
ECCENTRICITY   = .089577
INCLINATION    = 65.8312
RA_OF_ASC_NODE = 348.3815
ARG_OF_PERICENTER = 261.3385
MEAN_ANOMALY   = 88.5293

EPHEMERIS_TYPE = 0
CLASSIFICATION_TYPE = U
NORAD_CAT_ID   = 81792
ELEMENT_SET_NO = 999
REV_AT_EPOCH   = 8630
BSTAR          = .104E-2
MEAN_MOTION_DOT = .2934E-4
MEAN_MOTION_DDOT = 0

CCSDS_OMM_VERS = 2.0
CREATION_DATE  = 
ORIGINATOR     = 

OBJECT_NAME    = UNKNOWN
OBJECT_ID      = 
CENTER_NAME    = EARTH
REF_FRAME      = TEME
TIME_SYSTEM    = UTC
MEAN_ELEMENT_THEORY = SGP/SGP4

EPOCH          = 2026-01-30T17:18:19.745568
MEAN_MOTION    = 12.37746316
ECCENTRICITY   = .0235228
INCLINATION    = 103.8147
RA_OF_ASC_NODE = 313.6849
ARG_OF_PERICENTER = 154.3356
MEAN_ANOMALY   = 206.9591

EPHEMERIS_TYPE = 0
CLASSIFICATION_TYPE = U
NORAD_CAT_ID   = 81812
ELEMENT_SET_NO = 999
REV_AT_EPOCH   = 54662
BSTAR          = .25396E-1
MEAN_MOTION_DOT = .3571E-4
MEAN_MOTION_DDOT = 0

CCSDS_OMM_VERS = 2.0
CREATION_DATE  = 
ORIGINATOR     = 

OBJECT_NAME    = UNKNOWN
OBJECT_ID      = 
CENTER_NAME    = EARTH
REF_FRAME      = TEME
TIME_SYSTEM    = UTC
MEAN_ELEMENT_THEORY = SGP/SGP4

EPOCH          = 2026-01-31T09:38:10.428576
MEAN_MOTION    = 13.89604206
ECCENTRICITY   = .0175533
INCLINATION    = 66.2381
RA_OF_ASC_NODE = 172.2961
ARG_OF_PERICENTER = 218.4519
MEAN_ANOMALY   = 140.3941

EPHEMERIS_TYPE = 0
CLASSIFICATION_TYPE = U
NORAD_CAT_ID   = 81816
ELEMENT_SET_NO = 999
REV_AT_EPOCH   = 61624
BSTAR          = .1272E-2
MEAN_MOTION_DOT = .1684E-4
MEAN_MOTION_DDOT = 0

CCSDS_OMM_VERS = 2.0
CREATION_DATE  = 
ORIGINATOR     = 

OBJECT_NAME    = UNKNOWN
OBJECT_ID      = 
CENTER_NAME    = EARTH
REF_FRAME      = TEME
TIME_SYSTEM    = UTC
MEAN_ELEMENT_THEORY = SGP/SGP4

EPOCH          = 2026-01-31T05:03:58.958784
MEAN_MOTION    = 12.47772218
ECCENTRICITY   = .0030221
INCLINATION    = 102.1764
RA_OF_ASC_NODE = 134.0718
ARG_OF_PERICENTER = 23.2133
MEAN_ANOMALY   = 337.0292

EPHEMERIS_TYPE = 0
CLASSIFICATION_TYPE = U
NORAD_CAT_ID   = 81819
ELEMENT_SET_NO = 999
REV_AT_EPOCH   = 55418
BSTAR          = .71468E-2
MEAN_MOTION_DOT = .1011E-4
MEAN_MOTION_DDOT = 0

CCSDS_OMM_VERS = 2.0
CREATION_DATE  = 
ORIGINATOR     = 

OBJECT_NAME    = UNKNOWN
OBJECT_ID      = 
CENTER_NAME    = EARTH
REF_FRAME      = TEME
TIME_SYSTEM    = UTC
MEAN_ELEMENT_THEORY = SGP/SGP4

EPOCH          = 2026-01-29T21:34:53.827104
MEAN_MOTION    = 14.36035479
ECCENTRICITY   = .0044332
INCLINATION    = 65.8407
RA_OF_ASC_NODE = 205.7526
ARG_OF_PERICENTER = 307.9956
MEAN_ANOMALY   = 51.7138

EPHEMERIS_TYPE = 0
CLASSIFICATION_TYPE = U
NORAD_CAT_ID   = 81824
ELEMENT_SET_NO = 999
REV_AT_EPOCH   = 63150
BSTAR          = .24537E-2
MEAN_MOTION_DOT = .7142E-4
MEAN_MOTION_DDOT = 0

CCSDS_OMM_VERS = 2.0
CREATION_DATE  = 
ORIGINATOR     = 

OBJECT_NAME    = UNKNOWN
OBJECT_ID      = 
CENTER_NAME    = EARTH
REF_FRAME      = TEME
TIME_SYSTEM    = UTC
MEAN_ELEMENT_THEORY = SGP/SGP4

EPOCH          = 2026-01-28T16:13:43.019040
MEAN_MOTION    = 12.93746880
ECCENTRICITY   = .0025148
INCLINATION    = 90.2433
RA_OF_ASC_NODE = 3.9307
ARG_OF_PERICENTER = 261.8702
MEAN_ANOMALY   = 97.9564

EPHEMERIS_TYPE = 0
CLASSIFICATION_TYPE = U
NORAD_CAT_ID   = 81833
ELEMENT_SET_NO = 999
REV_AT_EPOCH   = 45858
BSTAR          = .1318E-2
MEAN_MOTION_DOT = .37E-5
MEAN_MOTION_DDOT = 0

CCSDS_OMM_VERS = 2.0
CREATION_DATE  = 
ORIGINATOR     = 

OBJECT_NAME    = UNKNOWN
OBJECT_ID      = 
CENTER_NAME    = EARTH
REF_FRAME      = TEME
TIME_SYSTEM    = UTC
MEAN_ELEMENT_THEORY = SGP/SGP4

EPOCH          = 2026-01-26T16:46:09.078816
MEAN_MOTION    = 14.57662167
ECCENTRICITY   = .0041952
INCLINATION    = 67.7595
RA_OF_ASC_NODE = 148.7226
ARG_OF_PERICENTER = 323.4616
MEAN_ANOMALY   = 103.9601

EPHEMERIS_TYPE = 0
CLASSIFICATION_TYPE = U
NORAD_CAT_ID   = 81838
ELEMENT_SET_NO = 999
REV_AT_EPOCH   = 63988
BSTAR          = .23584E-2
MEAN_MOTION_DOT = .10833E-3
MEAN_MOTION_DDOT = 0

CCSDS_OMM_VERS = 2.0
CREATION_DATE  = 
ORIGINATOR     = 

OBJECT_NAME    = UNKNOWN
OBJECT_ID      = 
CENTER_NAME    = EARTH
REF_FRAME      = TEME
TIME_SYSTEM    = UTC
MEAN_ELEMENT_THEORY = SGP/SGP4

EPOCH          = 2026-01-30T20:22:18.675264
MEAN_MOTION    = 14.33375025
ECCENTRICITY   = .0061954
INCLINATION    = 82.9078
RA_OF_ASC_NODE = 242.2778
ARG_OF_PERICENTER = 2.5369
MEAN_ANOMALY   = 357.6121

EPHEMERIS_TYPE = 0
CLASSIFICATION_TYPE = U
NORAD_CAT_ID   = 81844
ELEMENT_SET_NO = 999
REV_AT_EPOCH   = 62992
BSTAR          = .18168E-2
MEAN_MOTION_DOT = .5133E-4
MEAN_MOTION_DDOT = 0

CCSDS_OMM_VERS = 2.0
CREATION_DATE  = 
ORIGINATOR     = 

OBJECT_NAME    = UNKNOWN
OBJECT_ID      = 
CENTER_NAME    = EARTH
REF_FRAME      = TEME
TIME_SYSTEM    = UTC
MEAN_ELEMENT_THEORY = SGP/SGP4

EPOCH          = 2026-01-31T06:45:14.865984
MEAN_MOTION    = 14.85485975
ECCENTRICITY   = .0087997
INCLINATION    = 97.6750
RA_OF_ASC_NODE = 221.5174
ARG_OF_PERICENTER = 141.4331
MEAN_ANOMALY   = 36.5732

EPHEMERIS_TYPE = 0
CLASSIFICATION_TYPE = U
NORAD_CAT_ID   = 81845
ELEMENT_SET_NO = 999
REV_AT_EPOCH   = 65687
BSTAR          = .34692E-3
MEAN_MOTION_DOT = .3154E-4
MEAN_MOTION_DDOT = 0

CCSDS_OMM_VERS = 2.0
CREATION_DATE  = 
ORIGINATOR     = 

OBJECT_NAME    = UNKNOWN
OBJECT_ID      = 
CENTER_NAME    = EARTH
REF_FRAME      = TEME
TIME_SYSTEM    = UTC
MEAN_ELEMENT_THEORY = SGP/SGP4

EPOCH          = 2026-01-31T00:42:28.622016
MEAN_MOTION    = 13.32653109
ECCENTRICITY   = .0766422
INCLINATION    = 65.6741
RA_OF_ASC_NODE = 311.6500
ARG_OF_PERICENTER = 351.8445
MEAN_ANOMALY   = 7.0689

EPHEMERIS_TYPE = 0
CLASSIFICATION_TYPE = U
NORAD_CAT_ID   = 81864
ELEMENT_SET_NO = 999
REV_AT_EPOCH   = 55740
BSTAR          = .11482E-2
MEAN_MOTION_DOT = .2998E-4
MEAN_MOTION_DDOT = 0

CCSDS_OMM_VERS = 2.0
CREATION_DATE  = 
ORIGINATOR     = 

OBJECT_NAME    = UNKNOWN
OBJECT_ID      = 
CENTER_NAME    = EARTH
REF_FRAME      = TEME
TIME_SYSTEM    = UTC
MEAN_ELEMENT_THEORY = SGP/SGP4

EPOCH          = 2026-01-27T15:13:10.078752
MEAN_MOTION    = 13.88175638
ECCENTRICITY   = .006044
INCLINATION    = 82.8067
RA_OF_ASC_NODE = 353.2473
ARG_OF_PERICENTER = 234.0843
MEAN_ANOMALY   = 251.4461

EPHEMERIS_TYPE = 0
CLASSIFICATION_TYPE = U
NORAD_CAT_ID   = 81865
ELEMENT_SET_NO = 999
REV_AT_EPOCH   = 61491
BSTAR          = .1631E-2
MEAN_MOTION_DOT = .199E-4
MEAN_MOTION_DDOT = 0

